[{"OBJECT_NAME":"ONEWEB-0495","OBJECT_ID":"2022-138C","EPOCH":"2025-12-29T11:02:03.815232","MEAN_MOTION":13.19724949,"ECCENTRICITY":0.0002033,"INCLINATION":87.9208,"RA_OF_ASC_NODE":338.7457,"ARG_OF_PERICENTER":63.9375,"MEAN_ANOMALY":296.1967,"EPHEMERIS_TYPE":0,"CLASSIFICATION_TYPE":"U","NORAD_CAT_ID":54115,"ELEMENT_SET_NO":999,"REV_AT_EPOCH":15443,"BSTAR":2.5756e-5,"MEAN_MOTION_DOT":2.3e-7,"MEAN_MOTION_DDOT":0},{"OBJECT_NAME":"ONEWEB-0497","OBJECT_ID":"2022-138D","EPOCH":"2025-12-29T11:20:15.538848","MEAN_MOTION":13.19726065,"ECCENTRICITY":0.0001789,"INCLINATION":87.9213,"RA_OF_ASC_NODE":338.7305,"ARG_OF_PERICENTER":80.6047,"MEAN_ANOMALY":279.5288,"EPHEMERIS_TYPE":0,"CLASSIFICATION_TYPE":"U","NORAD_CAT_ID":54116,"ELEMENT_SET_NO":999,"REV_AT_EPOCH":15442,"BSTAR":0.00015019,"MEAN_MOTION_DOT":7.3e-7,"MEAN_MOTION_DDOT":0},{"OBJECT_NAME":"ONEWEB-0499","OBJECT_ID":"2022-138E","EPOCH":"2025-12-29T10:56:21.534720","MEAN_MOTION":13.19727084,"ECCENTRICITY":0.0001961,"INCLINATION":87.921,"RA_OF_ASC_NODE":338.7462,"ARG_OF_PERICENTER":79.9166,"MEAN_ANOMALY":280.2188,"EPHEMERIS_TYPE":0,"CLASSIFICATION_TYPE":"U","NORAD_CAT_ID":54117,"ELEMENT_SET_NO":999,"REV_AT_EPOCH":15443,"BSTAR":0.00038397,"MEAN_MOTION_DOT":1.67e-6,"MEAN_MOTION_DDOT":0},{"OBJECT_NAME":"ONEWEB-0500","OBJECT_ID":"2022-138F","EPOCH":"2025-12-29T10:59:47.832000","MEAN_MOTION":13.19725501,"ECCENTRICITY":0.0001702,"INCLINATION":87.9213,"RA_OF_ASC_NODE":338.7337,"ARG_OF_PERICENTER":84.7627,"MEAN_ANOMALY":275.37,"EPHEMERIS_TYPE":0,"CLASSIFICATION_TYPE":"U","NORAD_CAT_ID":54118,"ELEMENT_SET_NO":999,"REV_AT_EPOCH":15444,"BSTAR":0.00011436,"MEAN_MOTION_DOT":5.9e-7,"MEAN_MOTION_DDOT":0},{"OBJECT_NAME":"ONEWEB-0501","OBJECT_ID":"2022-138G","EPOCH":"2025-12-29T11:43:01.095168","MEAN_MOTION":13.19725505,"ECCENTRICITY":0.0001942,"INCLINATION":87.9219,"RA_OF_ASC_NODE":338.7277,"ARG_OF_PERICENTER":73.1619,"MEAN_ANOMALY":286.9726,"EPHEMERIS_TYPE":0,"CLASSIFICATION_TYPE":"U","NORAD_CAT_ID":54119,"ELEMENT_SET_NO":999,"REV_AT_EPOCH":15442,"BSTAR":9.1144e-5,"MEAN_MOTION_DOT":4.9e-7,"MEAN_MOTION_DDOT":0},{"OBJECT_NAME":"ONEWEB-0502","OBJECT_ID":"2022-138H","EPOCH":"2025-12-29T11:22:31.770048","MEAN_MOTION":13.19726154,"ECCENTRICITY":0.0001989,"INCLINATION":87.922,"RA_OF_ASC_NODE":338.7118,"ARG_OF_PERICENTER":77.5748,"MEAN_ANOMALY":282.5607,"EPHEMERIS_TYPE":0,"CLASSIFICATION_TYPE":"U","NORAD_CAT_ID":54120,"ELEMENT_SET_NO":999,"REV_AT_EPOCH":15444,"BSTAR":0.0001161,"MEAN_MOTION_DOT":5.9e-7,"MEAN_MOTION_DDOT":0},{"OBJECT_NAME":"ONEWEB-0503","OBJECT_ID":"2022-138J","EPOCH":"2025-12-29T11:06:36.595584","MEAN_MOTION":13.19725687,"ECCENTRICITY":0.0002035,"INCLINATION":87.9221,"RA_OF_ASC_NODE":338.7178,"ARG_OF_PERICENTER":87.6742,"MEAN_ANOMALY":272.4624,"EPHEMERIS_TYPE":0,"CLASSIFICATION_TYPE":"U","NORAD_CAT_ID":54121,"ELEMENT_SET_NO":999,"REV_AT_EPOCH":15443,"BSTAR":8.896e-5,"MEAN_MOTION_DOT":4.9e-7,"MEAN_MOTION_DDOT":0},{"OBJECT_NAME":"ONEWEB-0504","OBJECT_ID":"2022-138K","EPOCH":"2025-12-29T10:48:25.203744","MEAN_MOTION":13.19724962,"ECCENTRICITY":0.0002005,"INCLINATION":87.9214,"RA_OF_ASC_NODE":338.7356,"ARG_OF_PERICENTER":78.5098,"MEAN_ANOMALY":281.626,"EPHEMERIS_TYPE":0,"CLASSIFICATION_TYPE":"U","NORAD_CAT_ID":54122,"ELEMENT_SET_NO":999,"REV_AT_EPOCH":15444,"BSTAR":0.00018979,"MEAN_MOTION_DOT":8.9e-7,"MEAN_MOTION_DDOT":0},{"OBJECT_NAME":"ONEWEB-0505","OBJECT_ID":"2022-138L","EPOCH":"2025-12-29T08:54:41.150304","MEAN_MOTION":13.19725944,"ECCENTRICITY":0.0002093,"INCLINATION":87.9221,"RA_OF_ASC_NODE":338.7423,"ARG_OF_PERICENTER":70.9257,"MEAN_ANOMALY":289.2102,"EPHEMERIS_TYPE":0,"CLASSIFICATION_TYPE":"U","NORAD_CAT_ID":54123,"ELEMENT_SET_NO":999,"REV_AT_EPOCH":15441,"BSTAR":0.00036847,"MEAN_MOTION_DOT":1.6e-6,"MEAN_MOTION_DDOT":0},{"OBJECT_NAME":"ONEWEB-0506","OBJECT_ID":"2022-138M","EPOCH":"2025-12-29T11:56:39.341184","MEAN_MOTION":13.19725717,"ECCENTRICITY":0.0001888,"INCLINATION":87.9219,"RA_OF_ASC_NODE":338.7145,"ARG_OF_PERICENTER":79.023,"MEAN_ANOMALY":281.1115,"EPHEMERIS_TYPE":0,"CLASSIFICATION_TYPE":"U","NORAD_CAT_ID":54124,"ELEMENT_SET_NO":999,"REV_AT_EPOCH":15442,"BSTAR":0.00024762,"MEAN_MOTION_DOT":1.12e-6,"MEAN_MOTION_DDOT":0},{"OBJECT_NAME":"ONEWEB-0507","OBJECT_ID":"2022-138N","EPOCH":"2025-12-29T10:37:03.030816","MEAN_MOTION":13.19725494,"ECCENTRICITY":0.0001823,"INCLINATION":87.9202,"RA_OF_ASC_NODE":338.7572,"ARG_OF_PERICENTER":75.5422,"MEAN_ANOMALY":284.5913,"EPHEMERIS_TYPE":0,"CLASSIFICATION_TYPE":"U","NORAD_CAT_ID":54125,"ELEMENT_SET_NO":999,"REV_AT_EPOCH":15446,"BSTAR":0.00020732,"MEAN_MOTION_DOT":9.6e-7,"MEAN_MOTION_DDOT":0},{"OBJECT_NAME":"ONEWEB-0508","OBJECT_ID":"2022-138P","EPOCH":"2025-12-29T10:32:29.230080","MEAN_MOTION":13.19726082,"ECCENTRICITY":0.0001819,"INCLINATION":87.9212,"RA_OF_ASC_NODE":338.7532,"ARG_OF_PERICENTER":72.2266,"MEAN_ANOMALY":287.9065,"EPHEMERIS_TYPE":0,"CLASSIFICATION_TYPE":"U","NORAD_CAT_ID":54126,"ELEMENT_SET_NO":999,"REV_AT_EPOCH":15444,"BSTAR":3.7313e-5,"MEAN_MOTION_DOT":2.8e-7,"MEAN_MOTION_DDOT":0},{"OBJECT_NAME":"ONEWEB-0509","OBJECT_ID":"2022-138Q","EPOCH":"2025-12-29T08:06:55.855008","MEAN_MOTION":13.19725712,"ECCENTRICITY":0.0001836,"INCLINATION":87.9218,"RA_OF_ASC_NODE":338.7455,"ARG_OF_PERICENTER":78.9727,"MEAN_ANOMALY":281.1612,"EPHEMERIS_TYPE":0,"CLASSIFICATION_TYPE":"U","NORAD_CAT_ID":54127,"ELEMENT_SET_NO":999,"REV_AT_EPOCH":15440,"BSTAR":0.00016231,"MEAN_MOTION_DOT":7.8e-7,"MEAN_MOTION_DDOT":0},{"OBJECT_NAME":"ONEWEB-0510","OBJECT_ID":"2022-138R","EPOCH":"2025-12-29T08:39:09.771264","MEAN_MOTION":13.20771476,"ECCENTRICITY":0.0001731,"INCLINATION":87.922,"RA_OF_ASC_NODE":308.3074,"ARG_OF_PERICENTER":96.2191,"MEAN_ANOMALY":263.9139,"EPHEMERIS_TYPE":0,"CLASSIFICATION_TYPE":"U","NORAD_CAT_ID":54128,"ELEMENT_SET_NO":999,"REV_AT_EPOCH":15686,"BSTAR":8.6833e-5,"MEAN_MOTION_DOT":4.8e-7,"MEAN_MOTION_DDOT":0},{"OBJECT_NAME":"ONEWEB-0511","OBJECT_ID":"2022-138S","EPOCH":"2025-12-29T09:51:33.636672","MEAN_MOTION":13.19725874,"ECCENTRICITY":0.0002086,"INCLINATION":87.9219,"RA_OF_ASC_NODE":338.735,"ARG_OF_PERICENTER":86.0273,"MEAN_ANOMALY":274.1098,"EPHEMERIS_TYPE":0,"CLASSIFICATION_TYPE":"U","NORAD_CAT_ID":54129,"ELEMENT_SET_NO":999,"REV_AT_EPOCH":15444,"BSTAR":0.00019617,"MEAN_MOTION_DOT":9.1e-7,"MEAN_MOTION_DDOT":0},{"OBJECT_NAME":"ONEWEB-0512","OBJECT_ID":"2022-138T","EPOCH":"2025-12-29T11:29:20.925024","MEAN_MOTION":13.19726563,"ECCENTRICITY":0.0002025,"INCLINATION":87.921,"RA_OF_ASC_NODE":338.7434,"ARG_OF_PERICENTER":75.8492,"MEAN_ANOMALY":284.2866,"EPHEMERIS_TYPE":0,"CLASSIFICATION_TYPE":"U","NORAD_CAT_ID":54130,"ELEMENT_SET_NO":999,"REV_AT_EPOCH":15442,"BSTAR":5.1271e-5,"MEAN_MOTION_DOT":3.3e-7,"MEAN_MOTION_DDOT":0},{"OBJECT_NAME":"ONEWEB-0513","OBJECT_ID":"2022-138U","EPOCH":"2025-12-29T11:27:52.511040","MEAN_MOTION":13.2026099,"ECCENTRICITY":0.0002572,"INCLINATION":87.9221,"RA_OF_ASC_NODE":338.7034,"ARG_OF_PERICENTER":73.1272,"MEAN_ANOMALY":287.0143,"EPHEMERIS_TYPE":0,"CLASSIFICATION_TYPE":"U","NORAD_CAT_ID":54131,"ELEMENT_SET_NO":999,"REV_AT_EPOCH":15432,"BSTAR":-4.2037e-5,"MEAN_MOTION_DOT":-4.0e-8,"MEAN_MOTION_DDOT":0}]
